1 04138U 69091A   23155.90142342  .00000061  00000-0  24577-4 0  9998
2 04138  74.0373 139.8666 0011886  56.9151 303.3147 14.46128195827506
1  4138U 69091A   23156.10895812  .00000053  00000-0  22321-4 0  9994
2  4138  74.0374 139.4793 0011905  56.5735 303.6560 14.46128186827995
1 04138U 69091A   23156.38567098  .00000055  00000-0  22847-4 0  9991
2 04138  74.0374 138.9631 0011907  55.8810 304.3476 14.46128225827570
1 04138U 69091A   23156.93909660  .00000057  00000-0  23538-4 0  9997
2 04138  74.0374 137.9305 0011925  54.6494 305.5777 14.46128357827654
1 04138U 69091A   23157.35416579  .00000060  00000-0  24381-4 0  9997
2 04138  74.0374 137.1560 0011932  53.6535 306.5723 14.46128421827713
1  4138U 69091A   23157.35416579  .00000060  00000-0  24381-4 0  9997
2  4138  74.0374 137.1560 0011932  53.6535 306.5723 14.46128421828174
1  4138U 69091A   23158.46101673  .00000071  00000-0  27416-4 0  9990
2  4138  74.0375 135.0909 0011943  50.9980 309.2240 14.46128692828337
1 04138U 69091A   23158.66855129  .00000074  00000-0  28190-4 0  9997
2 04138  74.0375 134.7037 0011953  50.5397 309.6817 14.46128738827901
1 04138U 69091A   23159.36033305  .00000087  00000-0  31721-4 0  9997
2 04138  74.0376 133.4130 0011969  48.9619 311.2572 14.46128916828004
1 04138U 69091A   23159.63704573  .00000090  00000-0  32696-4 0  9995
2 04138  74.0376 132.8967 0011980  48.3084 311.9097 14.46128986828048
1  4138U 69091A   23160.19047109  .00000091  00000-0  32845-4 0  9990
2  4138  74.0376 131.8641 0011995  47.0872 313.1291 14.46129073828580
1 04138U 69091A   23160.39800557  .00000095  00000-0  34217-4 0  9995
2 04138  74.0377 131.4769 0012008  46.6317 313.5839 14.46129153828157
1 04138U 69091A   23160.67471822  .00000095  00000-0  34057-4 0  9997
2 04138  74.0377 130.9607 0012024  46.0551 314.1597 14.46129211828191
1  4138U 69091A   23161.29732154  .00000105  00000-0  36971-4 0  9993
2  4138  74.0378 129.7991 0012038  44.6270 315.5855 14.46129402828746
1 04138U 69091A   23161.85074660  .00000112  00000-0  38746-4 0  9996
2 04138  74.0379 128.7666 0012052  43.3271 316.8833 14.46129588828361
1 04138U 69091A   23162.40417164  .00000114  00000-0  39497-4 0  9994
2 04138  74.0380 127.7340 0012073  42.0596 318.1486 14.46129736828443
1  4138U 69091A   23162.40417164  .00000114  00000-0  39497-4 0  9994
2  4138  74.0380 127.7340 0012073  42.0596 318.1486 14.46129736828904
1 04138U 69091A   23162.88841853  .00000103  00000-0  36392-4 0  9991
2 04138  74.0380 126.8305 0012087  40.9931 319.2133 14.46129800828510
1 04138U 69091A   23163.30348720  .00000108  00000-0  37768-4 0  9997
2 04138  74.0381 126.0561 0012098  40.0478 320.1570 14.46129923828574
1  4138U 69091A   23164.13362446  .00000094  00000-0  33935-4 0  9996
2  4138  74.0382 124.5073 0012126  38.1953 322.0062 14.46130090829153
1 04138U 69091A   23164.34115878  .00000093  00000-0  33437-4 0  9990
2 04138  74.0383 124.1201 0012135  37.7094 322.4913 14.46130133828723
1 04138U 69091A   23164.82540544  .00000089  00000-0  32443-4 0  9996
2 04138  74.0384 123.2167 0012150  36.6193 323.5793 14.46130250828795
1  4138U 69091A   23165.17129586  .00000091  00000-0  32886-4 0  9998
2  4138  74.0385 122.5714 0012162  35.8507 324.3465 14.46130352829305
1 04138U 69091A   23165.37883012  .00000087  00000-0  31843-4 0  9998
2 04138  74.0385 122.1842 0012172  35.3709 324.8254 14.46130395828872
1 04138U 69091A   23165.86307672  .00000073  00000-0  28045-4 0  9990
2 04138  74.0385 121.2808 0012189  34.3161 325.8782 14.46130459828949
1  4138U 69091A   23166.20896710  .00000073  00000-0  27833-4 0  9999
2  4138  74.0386 120.6354 0012203  33.5645 326.6284 14.46130532829459
1 04138U 69091A   23166.34732325  .00000070  00000-0  27190-4 0  9998
2 04138  74.0386 120.3773 0012208  33.2421 326.9502 14.46130561829015
1 04138U 69091A   23166.90074780  .00000066  00000-0  26024-4 0  9994
2 04138  74.0387 119.3448 0012231  32.0762 328.1138 14.46130715829092
1 04138U 69091A   23167.31581612  .00000080  00000-0  29994-4 0  9992
2 04138  74.0387 118.5704 0012249  31.1335 329.0546 14.46130894829151
1  4138U 69091A   23167.31581612  .00000080  00000-0  29994-4 0  9992
2  4138  74.0387 118.5704 0012249  31.1335 329.0546 14.46130894829612
1 04138U 69091A   23167.80006249  .00000076  00000-0  28881-4 0  9993
2 04138  74.0388 117.6670 0012264  30.0737 330.1122 14.46131003829229
1  4138U 69091A   23168.35348696  .00000068  00000-0  26611-4 0  9999
2  4138  74.0388 116.6344 0012286  28.8520 331.3315 14.46131066829760
1 04138U 69091A   23168.56102109  .00000066  00000-0  26040-4 0  9993
2 04138  74.0388 116.2472 0012296  28.3969 331.7857 14.46131104829332
1 04138U 69091A   23168.83773325  .00000068  00000-0  26669-4 0  9996
2 04138  74.0388 115.7310 0012303  27.7973 332.3840 14.46131194829376
1 04138U 69091A   23169.25280150  .00000070  00000-0  27101-4 0  9997
2 04138  74.0389 114.9566 0012318  26.8421 333.3372 14.46131273829431
1 04138U 69091A   23169.59869170  .00000068  00000-0  26411-4 0  9999
2 04138  74.0389 114.3113 0012334  26.0824 334.0953 14.46131336829488
1  4138U 69091A   23169.59869170  .00000068  00000-0  26411-4 0  9999
2  4138  74.0389 114.3113 0012334  26.0824 334.0953 14.46131336829949
1 04138U 69091A   23170.56718413  .00000073  00000-0  27969-4 0  9996
2 04138  74.0390 112.5044 0012374  23.9268 336.2463 14.46131558829627
1  4138U 69091A   23171.12060832  .00000072  00000-0  27583-4 0  9995
2  4138  74.0391 111.4719 0012390  22.7169 337.4535 14.46131646830162
1 04138U 69091A   23171.53567645  .00000073  00000-0  27902-4 0  9990
2 04138  74.0390 110.6975 0012409  21.7980 338.3704 14.46131727829769
1 04138U 69091A   23171.88156645  .00000073  00000-0  28030-4 0  9995
2 04138  74.0390 110.0522 0012418  21.0404 339.1263 14.46131833829818
1  4138U 69091A   23172.15827849  .00000083  00000-0  30779-4 0  9991
2  4138  74.0391 109.5359 0012430  20.4149 339.7503 14.46131913830312
1 04138U 69091A   23172.57334650  .00000084  00000-0  31070-4 0  9996
2 04138  74.0391 108.7615 0012449  19.5630 340.6003 14.46132031829914
1 04138U 69091A   23172.85005850  .00000079  00000-0  29725-4 0  9992
2 04138  74.0391 108.2453 0012457  18.9836 341.1784 14.46132084829953
1  4138U 69091A   23173.26512649  .00000087  00000-0  31976-4 0  9997
2  4138  74.0392 107.4709 0012476  18.0805 342.0794 14.46132191830476
1  4138U 69091A   23174.30279623  .00000099  00000-0  35292-4 0  9993
2  4138  74.0393 105.5350 0012516  15.8547 344.3000 14.46132500830627
1  4138U 69091A   23175.82471146  .00000093  00000-0  33609-4 0  9999
2  4138  74.0394 102.6957 0012577  12.6020 347.5450 14.46132891830848
1  4138U 69091A   23177.06991448  .00000087  00000-0  31978-4 0  9999
2  4138  74.0396 100.3726 0012629   9.9233 350.2172 14.46133179831025
1  4138U 69091A   23178.10758341  .00000075  00000-0  28408-4 0  9999
2  4138  74.0396  98.4367 0012675   7.6403 352.4946 14.46133394831176
1  4138U 69091A   23179.14525220  .00000056  00000-0  23066-4 0  9996
2  4138  74.0397  96.5008 0012723   5.3853 354.7439 14.46133573831324
1  4138U 69091A   23180.18292094  .00000042  00000-0  19170-4 0  9998
2  4138  74.0397  94.5649 0012768   3.1865 356.9372 14.46133715831475
1  4138U 69091A   23182.81168131  .00000025  00000-0  14402-4 0  9998
2  4138  74.0397  89.6604 0012884 357.6559   2.4537 14.46134049831856
1  4138U 69091A   23184.12606127  .00000044  00000-0  19763-4 0  9992
2  4138  74.0396  87.2081 0012939 354.9222   5.1803 14.46134285832046
1  4138U 69091A   23185.16372954  .00000049  00000-0  21171-4 0  9996
2  4138  74.0396  85.2721 0012981 352.7536   7.3432 14.46134437832193
1  4138U 69091A   23187.10070993  .00000067  00000-0  26153-4 0  9995
2  4138  74.0396  81.6583 0013070 348.7175  11.3688 14.46134812832479
1  4138U 69091A   23188.76097854  .00000066  00000-0  26049-4 0  9996
2  4138  74.0396  78.5607 0013132 345.3073  14.7701 14.46135096832715
1  4138U 69091A   23189.79864627  .00000052  00000-0  22193-4 0  9991
2  4138  74.0395  76.6247 0013170 343.1888  16.8832 14.46135204832860
1  4138U 69091A   23191.11302529  .00000039  00000-0  18412-4 0  9992
2  4138  74.0395  74.1724 0013229 340.4849  19.5801 14.46135324833056
1  4138U 69091A   23192.15069277  .00000037  00000-0  17759-4 0  9998
2  4138  74.0395  72.2362 0013274 338.3400  21.7195 14.46135471833203
1  4138U 69091A   23193.39589359  .00000056  00000-0  23186-4 0  9995
2  4138  74.0394  69.9130 0013312 335.8296  24.2236 14.46135781833383
1  4138U 69091A   23194.71027211  .00000067  00000-0  26233-4 0  9994
2  4138  74.0393  67.4606 0013364 333.1485  26.8980 14.46136034833578
1  4138U 69091A   23195.81711697  .00000085  00000-0  31300-4 0  9995
2  4138  74.0393  65.3953 0013400 330.9132  29.1278 14.46136312833738
1  4138U 69091A   23197.06231735  .00000085  00000-0  31436-4 0  9994
2  4138  74.0392  63.0719 0013452 328.3876  31.6473 14.46136497833914
1  4138U 69091A   23198.37669519  .00000098  00000-0  34942-4 0  9993
2  4138  74.0390  60.6194 0013505 325.7508  34.2778 14.46136839834103
1  4138U 69091A   23199.62189500  .00000090  00000-0  32701-4 0  9992
2  4138  74.0390  58.2959 0013540 323.2329  36.7899 14.46137100834280
1  4138U 69091A   23200.79791681  .00000088  00000-0  32278-4 0  9998
2  4138  74.0389  56.1016 0013589 320.8560  39.1614 14.46137368834459
1  4138U 69091A   23201.83558301  .00000082  00000-0  30425-4 0  9990
2  4138  74.0389  54.1654 0013624 318.7746  41.2382 14.46137582834608
1 04138U 69091A   23205.50200238  .00000064  00000-0  25546-4 0  9999
2 04138  74.0390  47.3241 0013731 311.4683  48.5295 14.46138339834676
1 04138U 69091A   23205.98624632  .00000067  00000-0  26407-4 0  9999
2 04138  74.0390  46.4205 0013750 310.5001  49.4958 14.46138446834744
1 04138U 69091A   23207.23144498  .00000076  00000-0  28702-4 0  9996
2 04138  74.0390  44.0970 0013787 308.0486  51.9427 14.46138740834922
1 04138U 69091A   23207.64651107  .00000075  00000-0  28463-4 0  9994
2 04138  74.0390  43.3224 0013770 307.1312  52.8587 14.46138853834984
